{
  "type": "FeatureCollection",
  "features": [
    {
      "type": "Feature",
      "properties": {
        "norad_id": 34434,
        "name": "COSMOS 2251 DEB",
        "group": "cosmos-2251-debris",
        "lat": -67.90757927917124,
        "lon": -124.698368289623,
        "alt_km": 988.3503973138049,
        "timestamp": "2025-12-12T11:38:31.806982+00:00",
        "meta_object_name": "COSMOS 2251 DEB",
        "meta_object_id": "1993-036SB",
        "meta_epoch": "2025-12-12T01:57:31.795200",
        "meta_mean_motion": 13.89806662,
        "meta_eccentricity": 0.0275036,
        "meta_inclination": 74.0631,
        "meta_ra_of_asc_node": 11.2438,
        "meta_arg_of_pericenter": 148.6983,
        "meta_mean_anomaly": 244.8181,
        "meta_ephemeris_type": 0,
        "meta_classification_type": "U",
        "meta_norad_cat_id": 34434,
        "meta_element_set_no": 999,
        "meta_rev_at_epoch": 83957,
        "meta_bstar": 0.004101,
        "meta_mean_motion_dot": 6.816e-05,
        "meta_mean_motion_ddot": 0,
        "tle_line1": "1 34434U 93036SB  25346.08161800  .00006816  00000+0  41010-2 0  9991",
        "tle_line2": "2 34434  74.0631  11.2438 0275036 148.6983 244.8181 13.89806662839571"
      },
      "geometry": {
        "type": "Point",
        "coordinates": [
          -124.698368289623,
          -67.90757927917124
        ]
      }
    },
    {
      "type": "Feature",
      "properties": {
        "norad_id": 34446,
        "name": "COSMOS 2251 DEB",
        "group": "cosmos-2251-debris",
        "lat": 22.215296935145613,
        "lon": 64.47099435469642,
        "alt_km": 763.2148593524826,
        "timestamp": "2025-12-12T11:38:31.806992+00:00",
        "meta_object_name": "COSMOS 2251 DEB",
        "meta_object_id": "1993-036SP",
        "meta_epoch": "2025-12-11T07:22:20.954208",
        "meta_mean_motion": 14.49350894,
        "meta_eccentricity": 0.00512241,
        "meta_inclination": 74.0423,
        "meta_ra_of_asc_node": 59.9681,
        "meta_arg_of_pericenter": 198.3289,
        "meta_mean_anomaly": 161.6028,
        "meta_ephemeris_type": 0,
        "meta_classification_type": "U",
        "meta_norad_cat_id": 34446,
        "meta_element_set_no": 999,
        "meta_rev_at_epoch": 88673,
        "meta_bstar": 0.0002443455,
        "meta_mean_motion_dot": 9.21e-06,
        "meta_mean_motion_ddot": 0,
        "tle_line1": "1 34446U 93036SP  25345.30718697  .00000921  00000+0  24435-3 0  9994",
        "tle_line2": "2 34446  74.0423  59.9681 0051224 198.3289 161.6028 14.49350894886738"
      },
      "geometry": {
        "type": "Point",
        "coordinates": [
          64.47099435469642,
          22.215296935145613
        ]
      }
    },
    {
      "type": "Feature",
      "properties": {
        "norad_id": 34449,
        "name": "COSMOS 2251 DEB",
        "group": "cosmos-2251-debris",
        "lat": 48.38634257550083,
        "lon": -127.73012887819993,
        "alt_km": 562.3019891507292,
        "timestamp": "2025-12-12T11:38:31.807002+00:00",
        "meta_object_name": "COSMOS 2251 DEB",
        "meta_object_id": "1993-036SS",
        "meta_epoch": "2025-12-11T08:02:08.268288",
        "meta_mean_motion": 14.94757547,
        "meta_eccentricity": 0.00233275,
        "meta_inclination": 74.033,
        "meta_ra_of_asc_node": 73.3923,
        "meta_arg_of_pericenter": 116.6718,
        "meta_mean_anomaly": 304.6957,
        "meta_ephemeris_type": 0,
        "meta_classification_type": "U",
        "meta_norad_cat_id": 34449,
        "meta_element_set_no": 999,
        "meta_rev_at_epoch": 88672,
        "meta_bstar": 0.0059474775,
        "meta_mean_motion_dot": 0.00065566,
        "meta_mean_motion_ddot": 0,
        "tle_line1": "1 34449U 93036SS  25345.33481792  .00065566  00000+0  59475-2 0  9990",
        "tle_line2": "2 34449  74.0330  73.3923 0023327 116.6718 304.6957 14.94757547886725"
      },
      "geometry": {
        "type": "Point",
        "coordinates": [
          -127.73012887819993,
          48.38634257550083
        ]
      }
    },
    {
      "type": "Feature",
      "properties": {
        "norad_id": 34451,
        "name": "COSMOS 2251 DEB",
        "group": "cosmos-2251-debris",
        "lat": 71.69838203732323,
        "lon": -151.4891597290251,
        "alt_km": 556.687633083442,
        "timestamp": "2025-12-12T11:38:31.807012+00:00",
        "meta_object_name": "COSMOS 2251 DEB",
        "meta_object_id": "1993-036SU",
        "meta_epoch": "2025-12-11T17:32:30.157440",
        "meta_mean_motion": 14.95485056,
        "meta_eccentricity": 0.00243257,
        "meta_inclination": 74.0461,
        "meta_ra_of_asc_node": 89.9042,
        "meta_arg_of_pericenter": 110.1936,
        "meta_mean_anomaly": 250.1868,
        "meta_ephemeris_type": 0,
        "meta_classification_type": "U",
        "meta_norad_cat_id": 34451,
        "meta_element_set_no": 999,
        "meta_rev_at_epoch": 88620,
        "meta_bstar": 0.0042516406,
        "meta_mean_motion_dot": 0.0004764,
        "meta_mean_motion_ddot": 0,
        "tle_line1": "1 34451U 93036SU  25345.73090460  .00047640  00000+0  42516-2 0  9996",
        "tle_line2": "2 34451  74.0461  89.9042 0024325 110.1936 250.1868 14.95485056886201"
      },
      "geometry": {
        "type": "Point",
        "coordinates": [
          -151.4891597290251,
          71.69838203732323
        ]
      }
    },
    {
      "type": "Feature",
      "properties": {
        "norad_id": 34452,
        "name": "COSMOS 2251 DEB",
        "group": "cosmos-2251-debris",
        "lat": 5.928675062728546,
        "lon": 1.6441989807197581,
        "alt_km": 529.5487920881314,
        "timestamp": "2025-12-12T11:38:31.807022+00:00",
        "meta_object_name": "COSMOS 2251 DEB",
        "meta_object_id": "1993-036SV",
        "meta_epoch": "2025-12-12T00:25:51.070080",
        "meta_mean_motion": 15.11648851,
        "meta_eccentricity": 0.0066367,
        "meta_inclination": 74.0361,
        "meta_ra_of_asc_node": 184.314,
        "meta_arg_of_pericenter": 260.8574,
        "meta_mean_anomaly": 252.5595,
        "meta_ephemeris_type": 0,
        "meta_classification_type": "U",
        "meta_norad_cat_id": 34452,
        "meta_element_set_no": 999,
        "meta_rev_at_epoch": 90651,
        "meta_bstar": 0.0010905,
        "meta_mean_motion_dot": 0.00019569,
        "meta_mean_motion_ddot": 0,
        "tle_line1": "1 34452U 93036SV  25346.01795220  .00019569  00000+0  10905-2 0  9991",
        "tle_line2": "2 34452  74.0361 184.3140 0066367 260.8574 252.5595 15.11648851906516"
      },
      "geometry": {
        "type": "Point",
        "coordinates": [
          1.6441989807197581,
          5.928675062728546
        ]
      }
    },
    {
      "type": "Feature",
      "properties": {
        "norad_id": 34453,
        "name": "COSMOS 2251 DEB",
        "group": "cosmos-2251-debris",
        "lat": 4.978742772219194,
        "lon": 101.18162330006498,
        "alt_km": 281.1869010182545,
        "timestamp": "2025-12-12T11:38:31.807032+00:00",
        "meta_object_name": "COSMOS 2251 DEB",
        "meta_object_id": "1993-036SW",
        "meta_epoch": "2025-12-11T14:27:42.338304",
        "meta_mean_motion": 15.84318008,
        "meta_eccentricity": 0.00235977,
        "meta_inclination": 74.1047,
        "meta_ra_of_asc_node": 101.7985,
        "meta_arg_of_pericenter": 343.8106,
        "meta_mean_anomaly": 16.2368,
        "meta_ephemeris_type": 0,
        "meta_classification_type": "U",
        "meta_norad_cat_id": 34453,
        "meta_element_set_no": 999,
        "meta_rev_at_epoch": 88849,
        "meta_bstar": 0.018648609,
        "meta_mean_motion_dot": 0.03671882,
        "meta_mean_motion_ddot": 0.013569086,
        "tle_line1": "1 34453U 93036SW  25345.60257336  .03671882  13569-1  18649-1 0  9990",
        "tle_line2": "2 34453  74.1047 101.7985 0023597 343.8106  16.2368 15.84318008888497"
      },
      "geometry": {
        "type": "Point",
        "coordinates": [
          101.18162330006498,
          4.978742772219194
        ]
      }
    },
    {
      "type": "Feature",
      "properties": {
        "norad_id": 34454,
        "name": "COSMOS 2251 DEB",
        "group": "cosmos-2251-debris",
        "lat": -73.33491565202355,
        "lon": -154.601518087471,
        "alt_km": 758.8838510099713,
        "timestamp": "2025-12-12T11:38:31.807042+00:00",
        "meta_object_name": "COSMOS 2251 DEB",
        "meta_object_id": "1993-036SX",
        "meta_epoch": "2025-12-11T21:00:58.891968",
        "meta_mean_motion": 14.38806452,
        "meta_eccentricity": 0.0035564,
        "meta_inclination": 74.0588,
        "meta_ra_of_asc_node": 279.2283,
        "meta_arg_of_pericenter": 341.9036,
        "meta_mean_anomaly": 18.085,
        "meta_ephemeris_type": 0,
        "meta_classification_type": "U",
        "meta_norad_cat_id": 34454,
        "meta_element_set_no": 999,
        "meta_rev_at_epoch": 88055,
        "meta_bstar": 0.00041868,
        "meta_mean_motion_dot": 1.27e-05,
        "meta_mean_motion_ddot": 0,
        "tle_line1": "1 34454U 93036SX  25345.87568162  .00001270  00000+0  41868-3 0  9992",
        "tle_line2": "2 34454  74.0588 279.2283 0035564 341.9036  18.0850 14.38806452880555"
      },
      "geometry": {
        "type": "Point",
        "coordinates": [
          -154.601518087471,
          -73.33491565202355
        ]
      }
    }
  ]
}